[{"OBJECT_NAME":"STARLINK-30224","OBJECT_ID":"2023-102N","EPOCH":"2026-03-09T22:00:01.999584","MEAN_MOTION":15.1597228,"ECCENTRICITY":0.00017033,"INCLINATION":43.0005,"RA_OF_ASC_NODE":246.5259,"ARG_OF_PERICENTER":277.718,"MEAN_ANOMALY":82.2955,"EPHEMERIS_TYPE":0,"CLASSIFICATION_TYPE":"U","NORAD_CAT_ID":57416,"ELEMENT_SET_NO":999,"REV_AT_EPOCH":577,"BSTAR":0.0051457482,"MEAN_MOTION_DOT":0.00101766,"MEAN_MOTION_DDOT":0},{"OBJECT_NAME":"AC1-001","OBJECT_ID":"2025-276CG","EPOCH":"2026-03-09T17:01:33.320352","MEAN_MOTION":15.17859032,"ECCENTRICITY":0.00029713,"INCLINATION":97.4276,"RA_OF_ASC_NODE":143.9133,"ARG_OF_PERICENTER":22.5153,"MEAN_ANOMALY":337.6211,"EPHEMERIS_TYPE":0,"CLASSIFICATION_TYPE":"U","NORAD_CAT_ID":66744,"ELEMENT_SET_NO":999,"REV_AT_EPOCH":1531,"BSTAR":0.00015685354,"MEAN_MOTION_DOT":3.109e-5,"MEAN_MOTION_DDOT":0}]
